ONEWEB-0349             
1 49281U 21090C   24147.79614788 -.00000128  00000+0 -34696-3 0  9997
2 49281  87.9223  63.9478 0001985  71.5885 288.5464 13.20772620130642
ONEWEB-0353             
1 49282U 21090D   24147.85205151  .00000084  00000+0  19239-3 0  9990
2 49282  87.8961  79.1959 0002167  88.6327 271.5051 13.14502694128878
ONEWEB-0356             
1 49283U 21090E   24148.17334261 -.00000214  00000+0 -55884-3 0  9995
2 49283  87.9221  63.8676 0001039  83.1819 276.9433 13.20772013131988
ONEWEB-0358             
1 49284U 21090F   24147.82454294 -.00000249  00000+0 -64404-3 0  9992
2 49284  87.9226  63.9229 0001776  75.0822 285.0508 13.20772434131375
ONEWEB-0359             
1 49285U 21090G   24147.82140230 -.00000389  00000+0 -98896-3 0  9992
2 49285  87.9220  63.9424 0002214  66.9327 293.2040 13.20771445131355
ONEWEB-0360             
1 49286U 21090H   24147.81193854  .00000059  00000+0  11397-3 0  9995
2 49286  87.9221  63.9485 0002031  71.9430 288.1925 13.20769883130663
ONEWEB-0361             
1 49287U 21090J   24148.17176696 -.00001253  00000+0 -31134-2 0  9990
2 49287  87.9220  63.8718 0001819  82.4523 277.6817 13.20776132131999
ONEWEB-0362             
1 49288U 21090K   24148.21189771  .00000041  00000+0  69722-4 0  9992
2 49288  87.9145  94.4354 0002437  81.1801 278.9608 13.19724710128681
